25286,IRIDIUM 63,1998,100.32,-1.0,-,86.4,Inactive,0,LEO,Kazakhstan,USA,Unknown,Unknown,Proton,1 25286U 98021B   23251.38880103  .00000474  00000+0  15854-3 0  9997,2 25286  86.4046 353.4611 0002083  98.5474 261.5958 14.35396952330881,14.35396952,0.0002083,LEO
25319,IRIDIUM 69,1998,100.03,-1.0,-,86.4,Inactive,0,LEO,PRC,USA,Unknown,Unknown,Long March,1 25319U 98026A   23251.37641974  .00000744  00000+0  23239-3 0  9995,2 25319  86.4038   8.6565 0002947  44.7811 315.3626 14.39545684329827,14.39545684,0.0002947,LEO
25320,IRIDIUM 71,1998,100.01,-1.0,-,86.4,Inactive,0,LEO,PRC,USA,Unknown,Unknown,Long March,1 25320U 98026B   23251.50984213  .00000589  00000+0  18129-3 0  9997,2 25320  86.4036   3.4453 0004145  78.2268 281.9395 14.39889939330351,14.39889939,0.0004145,LEO
25344,IRIDIUM 73,1998,99.31,-1.0,-,86.44,Inactive,0,LEO,USA,USA,Unknown,Unknown,Delta,1 25344U 98032C   23251.27648054  .00000570  00000+0  14198-3 0  9996,2 25344  86.4442 321.4623 0002498  77.8123 282.3362 14.50008146336625,14.50008146,0.0002498,LEO
25467,IRIDIUM 82,1998,95.9,-1.0,-,86.39,Inactive,0,LEO,USA,USA,Unknown,Unknown,Delta,1 25467U 98051A   23251.53595932  .00015213  00000+0  91816-3 0  9990,2 25467  86.3915  58.5171 0149438 171.9442 188.4246 15.01621068325959,15.01621068,0.0149438,LEO
25527,IRIDIUM 2,1998,93.56,-1.0,-,85.52,Inactive,0,LEO,USA,USA,Unknown,Unknown,Delta,1 25527U 98066A   23251.68452048  .00023696  00000+0  60915-3 0  9999,2 25527  85.5198 120.8741 0005369   4.5340 355.5960 15.39133228363508,15.39133228,0.0005369,LEO
